[{"OBJECT_NAME":"YAOGAN-36 02B","OBJECT_ID":"2022-133B","EPOCH":"2026-03-09T22:42:31.775904","MEAN_MOTION":15.30199518,"ECCENTRICITY":0.00056841,"INCLINATION":34.9983,"RA_OF_ASC_NODE":22.5268,"ARG_OF_PERICENTER":273.0351,"MEAN_ANOMALY":86.9715,"EPHEMERIS_TYPE":0,"CLASSIFICATION_TYPE":"U","NORAD_CAT_ID":54043,"ELEMENT_SET_NO":999,"REV_AT_EPOCH":18962,"BSTAR":0.00051218814,"MEAN_MOTION_DOT":0.00015352,"MEAN_MOTION_DDOT":0},{"OBJECT_NAME":"STARLINK-34839","OBJECT_ID":"2025-212AD","EPOCH":"2026-03-09T22:26:54.658176","MEAN_MOTION":15.3021873,"ECCENTRICITY":9.877e-5,"INCLINATION":53.1595,"RA_OF_ASC_NODE":344.3512,"ARG_OF_PERICENTER":112.3139,"MEAN_ANOMALY":247.7966,"EPHEMERIS_TYPE":0,"CLASSIFICATION_TYPE":"U","NORAD_CAT_ID":65703,"ELEMENT_SET_NO":999,"REV_AT_EPOCH":2728,"BSTAR":0.00070590751,"MEAN_MOTION_DOT":0.00020618,"MEAN_MOTION_DDOT":0}]
